ARIANE 5 R/B            
1 28499U 04049H   25357.97238857  .00001228  00000+0  14235-3 0  9990
2 28499  98.2528 158.6568 0083453 236.0353 123.2910 14.85039400134552
CZ-2D R/B               
1 28738U 05024B   25357.92981438  .00031286  00000+0  48748-3 0  9998
2 28738  97.3630   5.6749 0003718 321.6418  38.4570 15.53814145127995
ALOS (DAICHI)           
1 28931U 06002A   25351.73419158  .00001110  00000+0  19545-3 0  9994
2 28931  98.1098 303.1864 0001361 113.5739 246.5610 14.69501788 61443
H-2A R/B                
1 28932U 06002B   25357.88380314  .00009789  00000+0  51189-3 0  9998
2 28932  98.2325 133.5443 0054792 138.7314 221.8078 15.14782079 82958
RESURS-DK 1             
1 29228U 06021A   25357.61252053  .00002729  00000+0  16371-3 0  9998
2 29228  69.9337  73.7385 0006872 249.2294 110.8136 15.12217800 76022
CZ-4B R/B               
1 29507U 06046C   25357.85852872  .00005626  00000+0  29237-3 0  9990
2 29507  97.5716  37.9664 0034259 167.7760 192.4312 15.15977309 48553
CZ-2C R/B               
1 31114U 07010B   25357.77975705  .00000145  00000+0  85236-4 0  9994
2 31114  98.3975 109.8750 0059562 153.9994 206.4197 14.20214044968947
COSMO-SKYMED 1          
1 31598U 07023A   25357.95962021  .00003293  00000+0  30003-3 0  9999
2 31598  97.8840 183.4330 0001371  78.6345 281.5029 14.95847218  3583
COSMOS 2428             
1 31792U 07029A   25357.71202007  .00000190  00000+0  12770-3 0  9990
2 31792  70.9366   2.8420 0004294   8.2113 351.9078 14.12894112953367
SL-16 R/B               
1 31793U 07029B   25357.98344183  .00000284  00000+0  17221-3 0  9992
2 31793  70.9762 331.5218 0001875 264.0957 152.5186 14.14818123954664
KORONAS-FOTON           
1 33504U 09003A   25357.98595241  .00009319  00000+0  22143-3 0  9998
2 33504  82.4310 354.4497 0013346  73.5463 286.7249 15.41408886934072
CZ-2C R/B               
1 37731U 11030B   25357.87706963  .00001322  00000+0  17406-3 0  9992
2 37731  97.8431 311.7382 0051496 236.3441 183.0180 14.80934423778874
H-2A R/B                
1 38341U 12025E   25357.88794501  .00003291  00000+0  30515-3 0  9994
2 38341  98.4610 313.9782 0044516 199.0008 160.9552 14.94511173736896
SHIJIAN-16 (SJ-16)      
1 39358U 13057A   25358.00155024  .00001185  00000+0  11943-3 0  9999
2 39358  74.9733 328.3449 0017920 293.7635  66.1673 14.92011342660211
SL-4 R/B                
1 39679U 14021B   25357.28028605  .00011347  00000+0  27061-3 0  9999
2 39679  51.6089 349.3593 0100942 184.2247 175.7894 15.36902906644517
ALOS-2                  
1 39766U 14029A   25357.90247160  .00002114  00000+0  28990-3 0  9996
2 39766  97.9228  92.5900 0001368  97.1677 262.9690 14.79470935625668
YAOGAN-29               
1 41038U 15069A   25357.95332225  .00000328  00000+0  47213-4 0  9993
2 41038  98.0204  21.1600 0000812 170.9921 189.1307 14.82892873544656
ASTRO-H (HITOMI)        
1 41337U 16012A   25357.46930193  .00003552  00000+0  21083-3 0  9996
2 41337  30.9988 128.1956 0009716 286.3242  73.6327 15.09417397540709
HXMT (HUIYAN)           
1 42758U 17034A   25357.92347007  .00005858  00000+0  30481-3 0  9999
2 42758  43.0147  77.5626 0031125 116.9061 243.4973 15.16359826471039
CZ-2C R/B               
1 43521U 18054D   25357.44507647  .00110042  00000+0  66083-3 0  9995
2 43521  35.1340 108.1809 0014905 251.3310 108.5806 15.76275143416745
SAOCOM 1A               
1 43641U 18076A   25357.94616208  .00000506  00000+0  70103-4 0  9993
2 43641  97.8839 182.2050 0001374  83.0832 277.0537 14.82144014390148
H-2A R/B                
1 43682U 18084L   25357.49553618  .00019727  00000+0  52792-3 0  9990
2 43682  98.8767 193.8069 0026622 288.7559  71.0792 15.37744925394052
SAOCOM 1B               
1 46265U 20059A   25357.97742925  .00000295  00000+0  43612-4 0  9991
2 46265  97.8835 181.3357 0001441  84.2214 275.9163 14.82148360287539
CSS (TIANHE)            
1 48274U 21035A   25357.92225809  .00013990  00000+0  17429-3 0  9992
2 48274  41.4684 308.7959 0008063 129.7983 230.3567 15.59613430265771
COSMOS 2550             
1 48865U 21056A   25358.07216306 -.00000141  00000+0  15482-5 0  9994
2 48865  67.1431 269.6564 0008386 268.9591  91.0603 15.33843348251861
CZ-2C R/B               
1 52794U 22058K   25357.71086963  .00025400  00000+0  44887-3 0  9990
2 52794  50.1920 347.5778 0044740 243.8099 115.8265 15.49015030198331
CZ-2C R/B               
1 54039U 22132E   25357.48094517  .00032485  00000+0  47220-3 0  9990
2 54039  97.2943 353.8892 0021420  20.5529 339.6583 15.55447462178508
GSLV R/B                
1 54149U 22138AN  25357.82458174  .00002948  00000+0  25777-3 0  9993
2 54149  87.3820 191.7612 0024093  69.3329 291.0482 14.96182941172584
XRISM                   
1 57800U 23137A   25357.87054557  .00006285  00000+0  36702-3 0  9990
2 57800  31.0029  53.6741 0007624 357.2794   2.7802 15.10444557126317
ACS3                    
1 59588U 24077B   25357.87337049  .00023957  00000+0  20347-1 0  9990
2 59588  97.2606 310.9920 0074922 311.0036  48.4662 13.85981217 83689
SZ-21 MODULE            
1 66515U 25246C   25357.27550126  .00028121  00000+0  30326-3 0  9992
2 66515  41.4773 311.7518 0005038 316.6622  43.3822 15.63020660  6095
